GRUS-1A                 
1 43890U 18111Q   23287.83486094  .00003732  00000+0  34533-3 0  9995
2 43890  97.5811 175.4261 0004132 174.5729 185.5537 14.95116350261590
GRUS-1C                 
1 47933U 21022B   23287.82071365  .00002948  00000+0  27317-3 0  9992
2 47933  97.6474 181.9652 0019253   5.4554 354.6873 14.95096623139790
GRUS-1B                 
1 47934U 21022C   23287.86182688  .00004282  00000+0  39445-3 0  9996
2 47934  97.6482 182.0057 0018847   3.8102 356.3259 14.95098801139797
GRUS-1E                 
1 47935U 21022D   23287.87352754  .00003658  00000+0  33768-3 0  9999
2 47935  97.6501 182.2763 0018965   6.1913 353.9538 14.95100208139803
GRUS-1D                 
1 47936U 21022E   23287.83346331  .00003419  00000+0  31603-3 0  9991
2 47936  97.6481 182.0741 0019259   4.7385 355.4014 14.95090164139792
